NORAD_CAT_ID,OBJECT_NAME,OBJECT_TYPE,EPOCH,MEAN_MOTION,ECCENTRICITY,INCLINATION,RA_OF_ASC_NODE,ARG_OF_PERICENTER,MEAN_ANOMALY,BSTAR,MEAN_MOTION_DOT,MEAN_MOTION_DDOT,TLE_LINE0,TLE_LINE1,TLE_LINE2,SEMIMAJOR_AXIS,PERIOD,APOGEE,PERIGEE,DECAYED
55947.0,STARLINK-5851,PAYLOAD,2024-01-17 10:56:49,14.9833024,0.0002812,69.9999,96.5653,272.7771,87.3066,7.1635e-06,-8e-08,0.0,0 STARLINK-5851,1 55947U 23037AK  24017.45613295 -.00000008  00000-0  71635-5 0  9990,2 55947  69.9999  96.5653 0002812 272.7771  87.3066 14.98330240 47154,6950.192,96.107,574.012,570.103,0.0
55947.0,STARLINK-5851,PAYLOAD,2024-01-17 14:09:05,14.98334409,0.0002772,70.0,96.2288,272.7215,87.3626,3.4523e-05,3.19e-06,0.0,0 STARLINK-5851,1 55947U 23037AK  24017.58964943  .00000319  00000-0  34523-4 0  9991,2 55947  70.0000  96.2288 0002772 272.7215  87.3626 14.98334409 46836,6950.179,96.107,573.971,570.118,0.0
55947.0,STARLINK-5851,PAYLOAD,2024-01-18 10:58:50,14.9832475,0.0002688,70.0001,94.0415,259.8406,100.245,0.00010218,1.126e-05,0.0,0 STARLINK-5851,1 55947U 23037AK  24018.45753317  .00001126  00000-0  10218-3 0  9990,2 55947  70.0001  94.0415 0002688 259.8406 100.2450 14.98324750 47300,6950.209,96.107,573.942,570.206,0.0
55947.0,STARLINK-5851,PAYLOAD,2024-01-18 14:11:06,14.98326271,0.0002629,70.0004,93.7048,259.572,100.5143,8.093e-05,8.73e-06,0.0,0 STARLINK-5851,1 55947U 23037AK  24018.59105297  .00000873  00000-0  80930-4 0  9990,2 55947  70.0004  93.7048 0002629 259.5720 100.5143 14.98326271 46987,6950.204,96.107,573.897,570.242,0.0
55947.0,STARLINK-5851,PAYLOAD,2024-01-19 11:00:51,14.98333287,0.0002732,70.0,91.5166,258.0484,102.0369,3.0773e-05,2.74e-06,0.0,0 STARLINK-5851,1 55947U 23037AK  24019.45892868  .00000274  00000-0  30773-4 0  9998,2 55947  70.0000  91.5166 0002732 258.0484 102.0369 14.98333287 47451,6950.183,96.107,573.947,570.149,0.0
55947.0,STARLINK-5851,PAYLOAD,2024-01-19 14:13:07,14.98336536,0.0002726,70.0002,91.1807,259.4414,100.6438,2.9362e-05,2.57e-06,0.0,0 STARLINK-5851,1 55947U 23037AK  24019.59244607  .00000257  00000-0  29362-4 0  9998,2 55947  70.0002  91.1807 0002726 259.4414 100.6438 14.98336536 47138,6950.173,96.107,573.932,570.143,0.0
55947.0,STARLINK-5851,PAYLOAD,2024-01-20 11:02:52,14.98326536,0.0002601,70.0008,88.9929,251.4472,108.6405,-6.2973e-06,-1.68e-06,0.0,0 STARLINK-5851,1 55947U 23037AK  24020.46033257 -.00000168  00000-0 -62973-5 0  9992,2 55947  70.0008  88.9929 0002601 251.4472 108.6405 14.98326536 47604,6950.204,96.107,573.876,570.261,0.0
55947.0,STARLINK-5851,PAYLOAD,2024-01-20 14:15:08,14.98326308,0.0002618,70.0006,88.656,253.8539,106.2332,-1.2467e-05,-2.42e-06,0.0,0 STARLINK-5851,1 55947U 23037AK  24020.59385325 -.00000242  00000-0 -12467-4 0  9997,2 55947  70.0006  88.6560 0002618 253.8539 106.2332 14.98326308 47282,6950.204,96.107,573.889,570.25,0.0
55947.0,STARLINK-5851,PAYLOAD,2024-01-21 06:16:29,14.98332699,0.0002715,70.0001,86.972,263.2625,96.8225,-6.6046e-06,-1.72e-06,0.0,0 STARLINK-5851,1 55947U 23037AK  24021.26144914 -.00000172  00000-0 -66046-5 0  9994,2 55947  70.0001  86.9720 0002715 263.2625  96.8225 14.98332699 47381,6950.185,96.107,573.937,570.163,0.0
55947.0,STARLINK-5851,PAYLOAD,2024-01-21 12:41:01,14.9833252,0.0002888,69.9999,86.2993,264.8618,95.2211,2.4661e-05,2.01e-06,0.0,0 STARLINK-5851,1 55947U 23037AK  24021.52848793  .00000201  00000-0  24661-4 0  9996,2 55947  69.9999  86.2993 0002888 264.8618  95.2211 14.98332520 47762,6950.185,96.107,574.057,570.043,0.0
55947.0,STARLINK-5851,PAYLOAD,2024-01-21 14:17:09,14.98334214,0.0002871,69.9995,86.1287,269.1352,90.9478,3.154e-05,2.83e-06,0.0,0 STARLINK-5851,1 55947U 23037AK  24021.59524689  .00000283  00000-0  31540-4 0  9992,2 55947  69.9995  86.1287 0002871 269.1352  90.9478 14.98334214 47431,6950.18,96.107,574.04,570.049,0.0
55947.0,STARLINK-5851,PAYLOAD,2024-01-22 06:18:30,14.98327764,0.0002854,69.9999,84.4453,272.9987,87.0846,6.6616e-05,7.02e-06,0.0,0 STARLINK-5851,1 55947U 23037AK  24022.26285012  .00000702  00000-0  66616-4 0  9999,2 55947  69.9999  84.4453 0002854 272.9987  87.0846 14.98327764 47537,6950.2,96.107,574.048,570.081,0.0
55947.0,STARLINK-5851,PAYLOAD,2024-01-22 14:19:10,14.98330555,0.0002749,69.9998,83.6036,270.9765,89.1079,8.7567e-05,9.52e-06,0.0,0 STARLINK-5851,1 55947U 23037AK  24022.59664796  .00000952  00000-0  87567-4 0  9990,2 55947  69.9998  83.6036 0002749 270.9765  89.1079 14.98330555 47925,6950.191,96.107,573.967,570.146,0.0
55947.0,STARLINK-5851,PAYLOAD,2024-01-23 06:20:30,14.98344264,0.0002363,70.0,81.9203,269.7558,90.333,-0.00016641,-2.079e-05,0.0,0 STARLINK-5851,1 55947U 23037AK  24023.26424662 -.00002079  00000-0 -16641-3 0  9999,2 55947  70.0000  81.9203 0002363 269.7558  90.3330 14.98344264 47686,6950.149,96.106,573.656,570.371,0.0
55947.0,STARLINK-5851,PAYLOAD,2024-01-23 12:45:02,14.98344806,0.0002275,70.0001,81.2485,250.2164,109.875,-0.0001461,-1.836e-05,0.0,0 STARLINK-5851,1 55947U 23037AK  24023.53128317 -.00001836  00000-0 -14610-3 0  9991,2 55947  70.0001  81.2485 0002275 250.2164 109.8750 14.98344806 48069,6950.147,96.106,573.593,570.431,0.0
55947.0,STARLINK-5851,PAYLOAD,2024-01-24 11:10:56,14.98341471,0.0002582,70.0003,78.8923,256.362,103.7252,-0.00033712,-4.114e-05,0.0,0 STARLINK-5851,1 55947U 23037AK  24024.46592951 -.00004114  00000-0 -33712-3 0  9999,2 55947  70.0003  78.8923 0002582 256.3620 103.7252 14.98341471 48206,6950.157,96.106,573.817,570.228,0.0
55947.0,STARLINK-5851,PAYLOAD,2024-01-24 12:47:03,14.98369082,0.0002836,70.0002,78.7239,253.0627,107.0222,-0.00081582,-9.823e-05,0.0,0 STARLINK-5851,1 55947U 23037AK  24024.53268177 -.00009823  00000-0 -81582-3 0  9997,2 55947  70.0002  78.7239 0002836 253.0627 107.0222 14.98369082 47871,6950.072,96.104,573.908,569.966,0.0
55947.0,STARLINK-5851,PAYLOAD,2024-01-25 11:12:55,14.9834419,0.0002441,70.0012,76.3687,238.1667,121.9255,0.00014346,1.62e-05,0.0,0 STARLINK-5851,1 55947U 23037AK  24025.46731168  .00001620  00000-0  14346-3 0  9994,2 55947  70.0012  76.3687 0002441 238.1667 121.9255 14.98344190 48351,6950.149,96.106,573.711,570.317,0.0
55947.0,STARLINK-5851,PAYLOAD,2024-01-25 12:49:03,14.9834802,0.0002675,70.0,76.1987,255.5704,104.5158,0.00015003,1.698e-05,0.0,0 STARLINK-5851,1 55947U 23037AK  24025.53406855  .00001698  00000-0  15003-3 0  9990,2 55947  70.0000  76.1987 0002675 255.5704 104.5158 14.98348020 48022,6950.137,96.106,573.861,570.143,0.0
55947.0,STARLINK-5851,PAYLOAD,2024-01-26 11:14:58,14.98315858,0.0002561,70.0017,73.8444,225.8256,134.2693,-5.0144e-05,-6.91e-06,0.0,0 STARLINK-5851,1 55947U 23037AK  24026.46873286 -.00000691  00000-0 -50144-4 0  9999,2 55947  70.0017  73.8444 0002561 225.8256 134.2693 14.98315858 48508,6950.237,96.108,573.882,570.322,0.0
55947.0,STARLINK-5851,PAYLOAD,2024-01-26 12:51:06,14.98322447,0.0003027,69.9991,73.6724,266.5365,93.5448,-4.5517e-05,-6.36e-06,0.0,0 STARLINK-5851,1 55947U 23037AK  24026.53548967 -.00000636  00000-0 -45517-4 0  9999,2 55947  69.9991  73.6724 0003027 266.5365  93.5448 14.98322447 48176,6950.216,96.107,574.185,569.977,0.0
55947.0,STARLINK-5851,PAYLOAD,2024-01-27 03:16:18,14.98332418,0.0003046,69.9991,72.1578,263.5033,96.578,-0.00021055,-2.605e-05,0.0,0 STARLINK-5851,1 55947U 23037AK  24027.13632959 -.00002605  00000-0 -21055-3 0  9999,2 55947  69.9991  72.1578 0003046 263.5033  96.5780 14.98332418 48606,6950.185,96.107,574.167,569.933,0.0
55947.0,STARLINK-5851,PAYLOAD,2024-01-27 12:53:07,14.98334347,0.0003071,69.999,71.1469,269.1886,90.8922,-0.00017034,-2.125e-05,0.0,0 STARLINK-5851,1 55947U 23037AK  24027.53688720 -.00002125  00000-0 -17034-3 0  9999,2 55947  69.9990  71.1469 0003071 269.1886  90.8922 14.98334347 48326,6950.179,96.107,574.179,569.91,0.0
55947.0,STARLINK-5851,PAYLOAD,2024-01-28 04:54:27,14.98324802,0.0003063,69.9989,69.4634,268.6134,91.4674,9.3194e-05,1.019e-05,0.0,0 STARLINK-5851,1 55947U 23037AK  24028.20448669  .00001019  00000-0  93194-4 0  9991,2 55947  69.9989  69.4634 0003063 268.6134  91.4674 14.98324802 48763,6950.209,96.107,574.203,569.945,0.0
55947.0,STARLINK-5851,PAYLOAD,2024-01-28 12:55:07,14.98328422,0.0003008,69.999,68.6221,269.1274,90.954,0.00012944,1.452e-05,0.0,0 STARLINK-5851,1 55947U 23037AK  24028.53828450  .00001452  00000-0  12944-3 0  9991,2 55947  69.9990  68.6221 0003008 269.1274  90.9540 14.98328422 48474,6950.198,96.107,574.153,569.972,0.0
55947.0,STARLINK-5851,PAYLOAD,2024-01-29 11:21:00,14.98328424,0.0002878,69.9992,66.2657,271.2594,88.8235,8.8182e-05,9.59e-06,0.0,0 STARLINK-5851,1 55947U 23037AK  24029.47292767  .00000959  00000-0  88182-4 0  9990,2 55947  69.9992  66.2657 0002878 271.2594  88.8235 14.98328424 48958,6950.198,96.107,574.063,570.062,0.0
55947.0,STARLINK-5851,PAYLOAD,2024-01-30 11:23:02,14.98327776,0.0002755,69.9996,63.7412,261.3486,98.7361,-3.1689e-05,-4.71e-06,0.0,0 STARLINK-5851,1 55947U 23037AK  24030.47433123 -.00000471  00000-0 -31689-4 0  9996,2 55947  69.9996  63.7412 0002755 261.3486  98.7361 14.98327776 49104,6950.2,96.107,573.98,570.15,0.0
55947.0,STARLINK-5851,PAYLOAD,2024-01-31 03:24:22,14.98333501,0.0002873,69.9993,62.0574,261.6751,98.4082,3.4825e-05,3.23e-06,0.0,0 STARLINK-5851,1 55947U 23037AK  24031.14192484  .00000323  00000-0  34825-4 0  9992,2 55947  69.9993  62.0574 0002873 261.6751  98.4082 14.98333501 49202,6950.182,96.107,574.044,570.05,0.0
55947.0,STARLINK-5851,PAYLOAD,2024-01-31 11:25:02,14.98333571,0.0002849,69.9995,61.2159,259.8819,100.2019,3.7074e-05,3.49e-06,0.0,0 STARLINK-5851,1 55947U 23037AK  24031.47572399  .00000349  00000-0  37074-4 0  9992,2 55947  69.9995  61.2159 0002849 259.8819 100.2019 14.98333571 48917,6950.182,96.107,574.027,570.067,0.0
55947.0,STARLINK-5851,PAYLOAD,2024-02-01 03:26:23,14.98327832,0.0002814,69.9998,59.5336,255.2519,104.8328,2.1409e-05,1.62e-06,0.0,0 STARLINK-5851,1 55947U 23037AK  24032.14332734  .00000162  00000-0  21409-4 0  9992,2 55947  69.9998  59.5336 0002814 255.2519 104.8328 14.98327832 49351,6950.2,96.107,574.02,570.109,0.0
